*******************************************************************************
Ephemeris / WWW_USER Mon Mar 24 11:03:37 2025 Pasadena, USA      / Horizons    
*******************************************************************************
Target body name: (2018 VX1)                      {source: JPL#7}
Center body name: Earth (399)                     {source: DE441}
Center-site name: Mauna Kea
*******************************************************************************
Start time      : A.D. 2018-Aug-22 04:55:00.0000 UT      
Stop  time      : A.D. 2018-Aug-22 15:54:00.0000 UT      
Step-size       : 1 minutes
*******************************************************************************
Target pole/equ : undefined
Target radii    : undefined                                                    
Center geodetic : 204.5278, 19.8260847, 4.21024   {E-lon(deg),Lat(deg),Alt(km)}
Center cylindric: 204.5278, 6006.35451, 2151.0229 {E-lon(deg),Dxy(km),Dz(km)}
Center pole/equ : ITRF93                          {East-longitude positive}
Center radii    : 6378.137, 6378.137, 6356.752 km {Equator_a, b, pole_c}       
Target primary  : Sun
Vis. interferer : MOON (R_eq= 1737.400) km        {source: DE441}
Rel. light bend : Sun                             {source: DE441}
Rel. lght bnd GM: 1.3271E+11 km^3/s^2                                          
Small-body perts: Yes                             {source: SB441-N16}
Atmos refraction: NO (AIRLESS)
RA format       : HMS
Time format     : CAL 
Calendar mode   : Mixed Julian/Gregorian
RTS-only print  : NO       
EOP file        : eop.250321.p250617                                           
EOP coverage    : DATA-BASED 1962-JAN-20 TO 2025-MAR-21. PREDICTS-> 2025-JUN-16
Units conversion: 1 au= 149597870.700 km, c= 299792.458 km/s, 1 day= 86400.0 s 
Table cut-offs 1: Elevation (-90.0deg=NO ),Airmass (>38.000=NO), Daylight (YES)
Table cut-offs 2: Solar elongation (  0.0,180.0=NO ),Local Hour Angle( 0.0=NO )
Table cut-offs 3: RA/DEC angular rate (     0.0=NO )                           
*******************************************************************************
Initial IAU76/J2000 heliocentric ecliptic osculating elements (au, days, deg.):
  EPOCH=  2458429.5 ! 2018-Nov-07.00 (TDB)         Residual RMS= .34243        
   EC= .3094465550301519   QR= .9449639043218054   TP= 2458464.0659233886      
   OM= 45.67874041641947   W=  38.97310343924259   IN= 3.356915226222919       
  Equivalent ICRF heliocentric cartesian coordinates (au, au/d):
   X= 7.224620352366717E-01  Y= 6.383229877646874E-01  Z= 2.747435985069854E-01
  VX=-1.546092850205216E-02 VY= 1.016746642579675E-02 VZ= 5.632057443641291E-03
Asteroid physical parameters (km, seconds, rotational period in hours):        
   GM= n.a.                RAD= n.a.               ROTPER= n.a.                
   H= 27.5                 G= .150                 B-V= n.a.                   
                           ALBEDO= n.a.            STYP= n.a.                  
*******************************************************************************
 Date__(UT)__HR:MN     R.A._________(ICRF)_________DEC
******************************************************
$$SOE
 2018-Aug-22 11:04  m  00 53 49.328313 -05 14 17.74187
 2018-Aug-22 11:05  m  00 53 49.369070 -05 14 17.76448
 2018-Aug-22 11:06  m  00 53 49.409812 -05 14 17.78707
 2018-Aug-22 11:07  m  00 53 49.450540 -05 14 17.80964
 2018-Aug-22 11:08  m  00 53 49.491253 -05 14 17.83218
 2018-Aug-22 11:09  m  00 53 49.531952 -05 14 17.85470
 2018-Aug-22 11:10  m  00 53 49.572636 -05 14 17.87719
 2018-Aug-22 11:11  m  00 53 49.613307 -05 14 17.89966
 2018-Aug-22 11:12  m  00 53 49.653963 -05 14 17.92211
 2018-Aug-22 11:13  m  00 53 49.694606 -05 14 17.94453
 2018-Aug-22 11:14  m  00 53 49.735234 -05 14 17.96693
 2018-Aug-22 11:15  m  00 53 49.775849 -05 14 17.98930
 2018-Aug-22 11:16  m  00 53 49.816450 -05 14 18.01165
 2018-Aug-22 11:17  m  00 53 49.857037 -05 14 18.03397
 2018-Aug-22 11:18  m  00 53 49.897611 -05 14 18.05627
 2018-Aug-22 11:19  m  00 53 49.938172 -05 14 18.07854
 2018-Aug-22 11:20  m  00 53 49.978719 -05 14 18.10079
 2018-Aug-22 11:21  m  00 53 50.019254 -05 14 18.12301
 2018-Aug-22 11:22  m  00 53 50.059775 -05 14 18.14521
 2018-Aug-22 11:23  m  00 53 50.100283 -05 14 18.16739
 2018-Aug-22 11:24  m  00 53 50.140778 -05 14 18.18953
 2018-Aug-22 11:25  m  00 53 50.181261 -05 14 18.21166
 2018-Aug-22 11:26  m  00 53 50.221731 -05 14 18.23375
 2018-Aug-22 11:27  m  00 53 50.262188 -05 14 18.25583
 2018-Aug-22 11:28  m  00 53 50.302633 -05 14 18.27787
 2018-Aug-22 11:29  m  00 53 50.343065 -05 14 18.29990
 2018-Aug-22 11:30  m  00 53 50.383486 -05 14 18.32189
 2018-Aug-22 11:31  m  00 53 50.423894 -05 14 18.34386
 2018-Aug-22 11:32  m  00 53 50.464290 -05 14 18.36581
 2018-Aug-22 11:33  m  00 53 50.504674 -05 14 18.38773
 2018-Aug-22 11:34  m  00 53 50.545046 -05 14 18.40962
 2018-Aug-22 11:35  m  00 53 50.585406 -05 14 18.43149
 2018-Aug-22 11:36  m  00 53 50.625755 -05 14 18.45333
 2018-Aug-22 11:37  m  00 53 50.666093 -05 14 18.47514
 2018-Aug-22 11:38  m  00 53 50.706419 -05 14 18.49693
 2018-Aug-22 11:39  m  00 53 50.746733 -05 14 18.51869
 2018-Aug-22 11:40  m  00 53 50.787036 -05 14 18.54043
 2018-Aug-22 11:41  m  00 53 50.827329 -05 14 18.56214
 2018-Aug-22 11:42  m  00 53 50.867610 -05 14 18.58382
 2018-Aug-22 11:43  m  00 53 50.907880 -05 14 18.60548
 2018-Aug-22 11:44  m  00 53 50.948140 -05 14 18.62711
 2018-Aug-22 11:45  m  00 53 50.988389 -05 14 18.64871
 2018-Aug-22 11:46  m  00 53 51.028627 -05 14 18.67029
 2018-Aug-22 11:47  m  00 53 51.068855 -05 14 18.69184
 2018-Aug-22 11:48  m  00 53 51.109072 -05 14 18.71337
 2018-Aug-22 11:49  m  00 53 51.149279 -05 14 18.73486
 2018-Aug-22 11:50  m  00 53 51.189476 -05 14 18.75633
 2018-Aug-22 11:51  m  00 53 51.229663 -05 14 18.77778
 2018-Aug-22 11:52  m  00 53 51.269840 -05 14 18.79919
 2018-Aug-22 11:53  m  00 53 51.310007 -05 14 18.82058
 2018-Aug-22 11:54  m  00 53 51.350164 -05 14 18.84194
 2018-Aug-22 11:55  m  00 53 51.390312 -05 14 18.86328
 2018-Aug-22 11:56  m  00 53 51.430450 -05 14 18.88459
 2018-Aug-22 11:57  m  00 53 51.470579 -05 14 18.90587
 2018-Aug-22 11:58  m  00 53 51.510699 -05 14 18.92712
 2018-Aug-22 11:59  m  00 53 51.550809 -05 14 18.94835
 2018-Aug-22 12:00  m  00 53 51.590910 -05 14 18.96954
 2018-Aug-22 12:01  m  00 53 51.631002 -05 14 18.99072
 2018-Aug-22 12:02  m  00 53 51.671086 -05 14 19.01186
 2018-Aug-22 12:03  m  00 53 51.711160 -05 14 19.03297
 2018-Aug-22 12:04  m  00 53 51.751226 -05 14 19.05406
 2018-Aug-22 12:05  m  00 53 51.791284 -05 14 19.07512
 2018-Aug-22 12:06  m  00 53 51.831333 -05 14 19.09616
 2018-Aug-22 12:07  m  00 53 51.871373 -05 14 19.11716
 2018-Aug-22 12:08  m  00 53 51.911406 -05 14 19.13814
 2018-Aug-22 12:09  m  00 53 51.951430 -05 14 19.15909
 2018-Aug-22 12:10  m  00 53 51.991446 -05 14 19.18001
 2018-Aug-22 12:11  m  00 53 52.031455 -05 14 19.20090
 2018-Aug-22 12:12  m  00 53 52.071456 -05 14 19.22177
 2018-Aug-22 12:13  m  00 53 52.111449 -05 14 19.24261
 2018-Aug-22 12:14  m  00 53 52.151434 -05 14 19.26342
 2018-Aug-22 12:15  m  00 53 52.191412 -05 14 19.28420
 2018-Aug-22 12:16  m  00 53 52.231383 -05 14 19.30495
 2018-Aug-22 12:17  m  00 53 52.271346 -05 14 19.32568
 2018-Aug-22 12:18  m  00 53 52.311303 -05 14 19.34637
 2018-Aug-22 12:19  m  00 53 52.351252 -05 14 19.36704
 2018-Aug-22 12:20  m  00 53 52.391194 -05 14 19.38768
 2018-Aug-22 12:21  m  00 53 52.431130 -05 14 19.40829
 2018-Aug-22 12:22  m  00 53 52.471059 -05 14 19.42888
 2018-Aug-22 12:23  m  00 53 52.510982 -05 14 19.44943
 2018-Aug-22 12:24  m  00 53 52.550898 -05 14 19.46996
 2018-Aug-22 12:25  m  00 53 52.590807 -05 14 19.49046
 2018-Aug-22 12:26  m  00 53 52.630711 -05 14 19.51093
 2018-Aug-22 12:27  m  00 53 52.670608 -05 14 19.53137
 2018-Aug-22 12:28  m  00 53 52.710499 -05 14 19.55178
 2018-Aug-22 12:29  m  00 53 52.750385 -05 14 19.57216
 2018-Aug-22 12:30  m  00 53 52.790265 -05 14 19.59252
 2018-Aug-22 12:31  m  00 53 52.830139 -05 14 19.61284
 2018-Aug-22 12:32  m  00 53 52.870007 -05 14 19.63314
 2018-Aug-22 12:33  m  00 53 52.909870 -05 14 19.65341
 2018-Aug-22 12:34  m  00 53 52.949728 -05 14 19.67365
 2018-Aug-22 12:35  m  00 53 52.989581 -05 14 19.69386
 2018-Aug-22 12:36  m  00 53 53.029428 -05 14 19.71404
 2018-Aug-22 12:37  m  00 53 53.069271 -05 14 19.73420
 2018-Aug-22 12:38  m  00 53 53.109108 -05 14 19.75432
 2018-Aug-22 12:39  m  00 53 53.148941 -05 14 19.77442
 2018-Aug-22 12:40  m  00 53 53.188769 -05 14 19.79449
 2018-Aug-22 12:41  m  00 53 53.228593 -05 14 19.81452
 2018-Aug-22 12:42  m  00 53 53.268412 -05 14 19.83453
 2018-Aug-22 12:43  m  00 53 53.308227 -05 14 19.85451
 2018-Aug-22 12:44  m  00 53 53.348038 -05 14 19.87446
 2018-Aug-22 12:45  m  00 53 53.387845 -05 14 19.89438
 2018-Aug-22 12:46  m  00 53 53.427648 -05 14 19.91428
 2018-Aug-22 12:47  m  00 53 53.467447 -05 14 19.93414
 2018-Aug-22 12:48  m  00 53 53.507242 -05 14 19.95397
 2018-Aug-22 12:49  m  00 53 53.547034 -05 14 19.97378
 2018-Aug-22 12:50  m  00 53 53.586822 -05 14 19.99355
 2018-Aug-22 12:51  m  00 53 53.626606 -05 14 20.01330
 2018-Aug-22 12:52  m  00 53 53.666388 -05 14 20.03302
 2018-Aug-22 12:53  m  00 53 53.706166 -05 14 20.05271
 2018-Aug-22 12:54  m  00 53 53.745941 -05 14 20.07237
 2018-Aug-22 12:55  m  00 53 53.785714 -05 14 20.09200
 2018-Aug-22 12:56  m  00 53 53.825483 -05 14 20.11160
 2018-Aug-22 12:57  m  00 53 53.865250 -05 14 20.13117
 2018-Aug-22 12:58  m  00 53 53.905014 -05 14 20.15071
 2018-Aug-22 12:59  m  00 53 53.944776 -05 14 20.17022
 2018-Aug-22 13:00  m  00 53 53.984535 -05 14 20.18970
 2018-Aug-22 13:01  m  00 53 54.024293 -05 14 20.20916
 2018-Aug-22 13:02  m  00 53 54.064048 -05 14 20.22858
 2018-Aug-22 13:03  m  00 53 54.103801 -05 14 20.24798
 2018-Aug-22 13:04  m  00 53 54.143552 -05 14 20.26734
 2018-Aug-22 13:05  m  00 53 54.183301 -05 14 20.28668
 2018-Aug-22 13:06  m  00 53 54.223049 -05 14 20.30599
